[{"OBJECT_NAME":"STARLINK-4287","OBJECT_ID":"2022-076AL","EPOCH":"2026-03-09T08:37:07.006368","MEAN_MOTION":15.08837351,"ECCENTRICITY":0.00013237,"INCLINATION":53.217,"RA_OF_ASC_NODE":85.6033,"ARG_OF_PERICENTER":92.0311,"MEAN_ANOMALY":268.0833,"EPHEMERIS_TYPE":0,"CLASSIFICATION_TYPE":"U","NORAD_CAT_ID":53020,"ELEMENT_SET_NO":999,"REV_AT_EPOCH":20293,"BSTAR":3.3000529e-5,"MEAN_MOTION_DOT":2.37e-6,"MEAN_MOTION_DDOT":0},{"OBJECT_NAME":"PEGASUS DEB","OBJECT_ID":"1994-029WD","EPOCH":"2026-03-09T21:43:57.366912","MEAN_MOTION":14.89136591,"ECCENTRICITY":0.01058593,"INCLINATION":81.9743,"RA_OF_ASC_NODE":221.1497,"ARG_OF_PERICENTER":252.4191,"MEAN_ANOMALY":235.9905,"EPHEMERIS_TYPE":0,"CLASSIFICATION_TYPE":"U","NORAD_CAT_ID":24529,"ELEMENT_SET_NO":999,"REV_AT_EPOCH":23750,"BSTAR":0.00030874262,"MEAN_MOTION_DOT":3.26e-5,"MEAN_MOTION_DDOT":0}]
